ONEWEB-0703             
1 56724U 23068Q   25327.37105424  .00000196  00000+0  48538-3 0  9994
2 56724  87.8963 300.2815 0002737 100.3016 259.8423 13.15547947122190
ONEWEB-0721             
1 56725U 23068R   25327.27004208 -.00000186  00000+0 -48067-3 0  9990
2 56725  86.6795 151.1985 0001479  91.4006 268.7297 13.22451578130721
ONEWEB-0015             
1 61594U 24188A   25327.30817983 -.00000253  00000+0 -74997-3 0  9996
2 61594  87.8865  62.0989 0001472 124.1326 235.9942 13.11417989 57477
ONEWEB-0687             
1 61595U 24188B   25327.29189969  .00000098  00000+0  21817-3 0  9999
2 61595  87.9116  46.8431 0001252 107.8343 252.2925 13.17650781 58786
ONEWEB-0688             
1 61596U 24188C   25327.24462485  .00000158  00000+0  37335-3 0  9991
2 61596  87.9121  46.8527 0001526 149.5026 210.6195 13.17647945 58778
ONEWEB-0689             
1 61597U 24188D   25327.34209073  .00000575  00000+0  15873-2 0  9990
2 61597  87.8844  62.0290 0001541 102.5191 257.6110 13.11415030 57472
ONEWEB-0690             
1 61598U 24188E   25327.27597253  .00000203  00000+0  53710-3 0  9994
2 61598  87.8884  62.0499 0002524 111.1079 249.0319 13.11415413 57641
ONEWEB-0691             
1 61599U 24188F   25327.34718303  .00000374  00000+0  10193-2 0  9990
2 61599  87.8828  61.9441 0001671 120.5203 239.6090 13.11415656 57505
ONEWEB-0692             
1 61600U 24188G   25327.29121008 -.00000544  00000+0 -15719-2 0  9997
2 61600  87.8857  62.0954 0002048  78.3371 281.7987 13.11416395 57487
ONEWEB-0693             
1 61601U 24188H   25327.25644546  .00000032  00000+0  50431-4 0  9993
2 61601  87.9118  46.8694 0002510 116.1352 244.0038 13.17647043 58767
ONEWEB-0695             
1 61602U 24188J   25327.34378682  .00000511  00000+0  14061-2 0  9998
2 61602  87.8862  62.0741 0001583  90.3393 269.7916 13.11414955 57488
ONEWEB-0697             
1 61603U 24188K   25327.29970201 -.00000445  00000+0 -12919-2 0  9996
2 61603  87.8861  62.0732 0002028  81.0341 279.1016 13.11418399 57463
ONEWEB-0698             
1 61604U 24188L   25327.43026147 -.00000003  00000+0 -44749-4 0  9992
2 61604  87.8860  62.0622 0002688  90.4071 269.7365 13.11414936 57507
ONEWEB-0699             
1 61605U 24188M   25327.35567876 -.00000002  00000+0 -41924-4 0  9994
2 61605  87.8816  77.2892 0002042  85.8208 274.3153 13.10374144 56354
ONEWEB-0700             
1 61606U 24188N   25327.35734487  .00000146  00000+0  38288-3 0  9994
2 61606  87.8822  77.1732 0001467  78.5378 281.5914 13.10378715 56343
ONEWEB-0701             
1 61607U 24188P   25327.37396265  .00000722  00000+0  20307-2 0  9997
2 61607  87.8811  77.2875 0002118  81.6561 278.4807 13.10373033 56359
ONEWEB-0702             
1 61608U 24188Q   25327.32343133  .00000381  00000+0  10401-2 0  9994
2 61608  87.8817  61.9763 0001875  75.4595 284.6741 13.11415263 57506
