[{"OBJECT_NAME":"ONEWEB-0703","OBJECT_ID":"2023-068Q","EPOCH":"2025-11-23T08:54:19.086336","MEAN_MOTION":13.15547947,"ECCENTRICITY":0.0002737,"INCLINATION":87.8963,"RA_OF_ASC_NODE":300.2815,"ARG_OF_PERICENTER":100.3016,"MEAN_ANOMALY":259.8423,"EPHEMERIS_TYPE":0,"CLASSIFICATION_TYPE":"U","NORAD_CAT_ID":56724,"ELEMENT_SET_NO":999,"REV_AT_EPOCH":12219,"BSTAR":0.00048538,"MEAN_MOTION_DOT":1.96e-6,"MEAN_MOTION_DDOT":0},{"OBJECT_NAME":"ONEWEB-0721","OBJECT_ID":"2023-068R","EPOCH":"2025-11-23T06:28:51.635712","MEAN_MOTION":13.22451578,"ECCENTRICITY":0.0001479,"INCLINATION":86.6795,"RA_OF_ASC_NODE":151.1985,"ARG_OF_PERICENTER":91.4006,"MEAN_ANOMALY":268.7297,"EPHEMERIS_TYPE":0,"CLASSIFICATION_TYPE":"U","NORAD_CAT_ID":56725,"ELEMENT_SET_NO":999,"REV_AT_EPOCH":13072,"BSTAR":-0.00048067,"MEAN_MOTION_DOT":-1.86e-6,"MEAN_MOTION_DDOT":0},{"OBJECT_NAME":"ONEWEB-0015","OBJECT_ID":"2024-188A","EPOCH":"2025-11-23T07:23:46.737312","MEAN_MOTION":13.11417989,"ECCENTRICITY":0.0001472,"INCLINATION":87.8865,"RA_OF_ASC_NODE":62.0989,"ARG_OF_PERICENTER":124.1326,"MEAN_ANOMALY":235.9942,"EPHEMERIS_TYPE":0,"CLASSIFICATION_TYPE":"U","NORAD_CAT_ID":61594,"ELEMENT_SET_NO":999,"REV_AT_EPOCH":5747,"BSTAR":-0.00074997,"MEAN_MOTION_DOT":-2.53e-6,"MEAN_MOTION_DDOT":0},{"OBJECT_NAME":"ONEWEB-0687","OBJECT_ID":"2024-188B","EPOCH":"2025-11-23T07:00:20.133216","MEAN_MOTION":13.17650781,"ECCENTRICITY":0.0001252,"INCLINATION":87.9116,"RA_OF_ASC_NODE":46.8431,"ARG_OF_PERICENTER":107.8343,"MEAN_ANOMALY":252.2925,"EPHEMERIS_TYPE":0,"CLASSIFICATION_TYPE":"U","NORAD_CAT_ID":61595,"ELEMENT_SET_NO":999,"REV_AT_EPOCH":5878,"BSTAR":0.00021817,"MEAN_MOTION_DOT":9.8e-7,"MEAN_MOTION_DDOT":0},{"OBJECT_NAME":"ONEWEB-0688","OBJECT_ID":"2024-188C","EPOCH":"2025-11-23T05:52:15.587040","MEAN_MOTION":13.17647945,"ECCENTRICITY":0.0001526,"INCLINATION":87.9121,"RA_OF_ASC_NODE":46.8527,"ARG_OF_PERICENTER":149.5026,"MEAN_ANOMALY":210.6195,"EPHEMERIS_TYPE":0,"CLASSIFICATION_TYPE":"U","NORAD_CAT_ID":61596,"ELEMENT_SET_NO":999,"REV_AT_EPOCH":5877,"BSTAR":0.00037335,"MEAN_MOTION_DOT":1.58e-6,"MEAN_MOTION_DDOT":0},{"OBJECT_NAME":"ONEWEB-0689","OBJECT_ID":"2024-188D","EPOCH":"2025-11-23T08:12:36.639072","MEAN_MOTION":13.1141503,"ECCENTRICITY":0.0001541,"INCLINATION":87.8844,"RA_OF_ASC_NODE":62.029,"ARG_OF_PERICENTER":102.5191,"MEAN_ANOMALY":257.611,"EPHEMERIS_TYPE":0,"CLASSIFICATION_TYPE":"U","NORAD_CAT_ID":61597,"ELEMENT_SET_NO":999,"REV_AT_EPOCH":5747,"BSTAR":0.0015873,"MEAN_MOTION_DOT":5.75e-6,"MEAN_MOTION_DDOT":0},{"OBJECT_NAME":"ONEWEB-0690","OBJECT_ID":"2024-188E","EPOCH":"2025-11-23T06:37:24.026592","MEAN_MOTION":13.11415413,"ECCENTRICITY":0.0002524,"INCLINATION":87.8884,"RA_OF_ASC_NODE":62.0499,"ARG_OF_PERICENTER":111.1079,"MEAN_ANOMALY":249.0319,"EPHEMERIS_TYPE":0,"CLASSIFICATION_TYPE":"U","NORAD_CAT_ID":61598,"ELEMENT_SET_NO":999,"REV_AT_EPOCH":5764,"BSTAR":0.0005371,"MEAN_MOTION_DOT":2.03e-6,"MEAN_MOTION_DDOT":0},{"OBJECT_NAME":"ONEWEB-0691","OBJECT_ID":"2024-188F","EPOCH":"2025-11-23T08:19:56.613792","MEAN_MOTION":13.11415656,"ECCENTRICITY":0.0001671,"INCLINATION":87.8828,"RA_OF_ASC_NODE":61.9441,"ARG_OF_PERICENTER":120.5203,"MEAN_ANOMALY":239.609,"EPHEMERIS_TYPE":0,"CLASSIFICATION_TYPE":"U","NORAD_CAT_ID":61599,"ELEMENT_SET_NO":999,"REV_AT_EPOCH":5750,"BSTAR":0.0010193,"MEAN_MOTION_DOT":3.74e-6,"MEAN_MOTION_DDOT":0},{"OBJECT_NAME":"ONEWEB-0692","OBJECT_ID":"2024-188G","EPOCH":"2025-11-23T06:59:20.550912","MEAN_MOTION":13.11416395,"ECCENTRICITY":0.0002048,"INCLINATION":87.8857,"RA_OF_ASC_NODE":62.0954,"ARG_OF_PERICENTER":78.3371,"MEAN_ANOMALY":281.7987,"EPHEMERIS_TYPE":0,"CLASSIFICATION_TYPE":"U","NORAD_CAT_ID":61600,"ELEMENT_SET_NO":999,"REV_AT_EPOCH":5748,"BSTAR":-0.0015719,"MEAN_MOTION_DOT":-5.44e-6,"MEAN_MOTION_DDOT":0},{"OBJECT_NAME":"ONEWEB-0693","OBJECT_ID":"2024-188H","EPOCH":"2025-11-23T06:09:16.887744","MEAN_MOTION":13.17647043,"ECCENTRICITY":0.000251,"INCLINATION":87.9118,"RA_OF_ASC_NODE":46.8694,"ARG_OF_PERICENTER":116.1352,"MEAN_ANOMALY":244.0038,"EPHEMERIS_TYPE":0,"CLASSIFICATION_TYPE":"U","NORAD_CAT_ID":61601,"ELEMENT_SET_NO":999,"REV_AT_EPOCH":5876,"BSTAR":5.0431e-5,"MEAN_MOTION_DOT":3.2e-7,"MEAN_MOTION_DDOT":0},{"OBJECT_NAME":"ONEWEB-0695","OBJECT_ID":"2024-188J","EPOCH":"2025-11-23T08:15:03.181248","MEAN_MOTION":13.11414955,"ECCENTRICITY":0.0001583,"INCLINATION":87.8862,"RA_OF_ASC_NODE":62.0741,"ARG_OF_PERICENTER":90.3393,"MEAN_ANOMALY":269.7916,"EPHEMERIS_TYPE":0,"CLASSIFICATION_TYPE":"U","NORAD_CAT_ID":61602,"ELEMENT_SET_NO":999,"REV_AT_EPOCH":5748,"BSTAR":0.0014061,"MEAN_MOTION_DOT":5.11e-6,"MEAN_MOTION_DDOT":0},{"OBJECT_NAME":"ONEWEB-0697","OBJECT_ID":"2024-188K","EPOCH":"2025-11-23T07:11:34.253664","MEAN_MOTION":13.11418399,"ECCENTRICITY":0.0002028,"INCLINATION":87.8861,"RA_OF_ASC_NODE":62.0732,"ARG_OF_PERICENTER":81.0341,"MEAN_ANOMALY":279.1016,"EPHEMERIS_TYPE":0,"CLASSIFICATION_TYPE":"U","NORAD_CAT_ID":61603,"ELEMENT_SET_NO":999,"REV_AT_EPOCH":5746,"BSTAR":-0.0012919,"MEAN_MOTION_DOT":-4.45e-6,"MEAN_MOTION_DDOT":0},{"OBJECT_NAME":"ONEWEB-0698","OBJECT_ID":"2024-188L","EPOCH":"2025-11-23T10:19:34.591008","MEAN_MOTION":13.11414936,"ECCENTRICITY":0.0002688,"INCLINATION":87.886,"RA_OF_ASC_NODE":62.0622,"ARG_OF_PERICENTER":90.4071,"MEAN_ANOMALY":269.7365,"EPHEMERIS_TYPE":0,"CLASSIFICATION_TYPE":"U","NORAD_CAT_ID":61604,"ELEMENT_SET_NO":999,"REV_AT_EPOCH":5750,"BSTAR":-4.4749e-5,"MEAN_MOTION_DOT":-3.0e-8,"MEAN_MOTION_DDOT":0},{"OBJECT_NAME":"ONEWEB-0699","OBJECT_ID":"2024-188M","EPOCH":"2025-11-23T08:32:10.644864","MEAN_MOTION":13.10374144,"ECCENTRICITY":0.0002042,"INCLINATION":87.8816,"RA_OF_ASC_NODE":77.2892,"ARG_OF_PERICENTER":85.8208,"MEAN_ANOMALY":274.3153,"EPHEMERIS_TYPE":0,"CLASSIFICATION_TYPE":"U","NORAD_CAT_ID":61605,"ELEMENT_SET_NO":999,"REV_AT_EPOCH":5635,"BSTAR":-4.1924e-5,"MEAN_MOTION_DOT":-2.0e-8,"MEAN_MOTION_DDOT":0},{"OBJECT_NAME":"ONEWEB-0700","OBJECT_ID":"2024-188N","EPOCH":"2025-11-23T08:34:34.596768","MEAN_MOTION":13.10378715,"ECCENTRICITY":0.0001467,"INCLINATION":87.8822,"RA_OF_ASC_NODE":77.1732,"ARG_OF_PERICENTER":78.5378,"MEAN_ANOMALY":281.5914,"EPHEMERIS_TYPE":0,"CLASSIFICATION_TYPE":"U","NORAD_CAT_ID":61606,"ELEMENT_SET_NO":999,"REV_AT_EPOCH":5634,"BSTAR":0.00038288,"MEAN_MOTION_DOT":1.46e-6,"MEAN_MOTION_DDOT":0},{"OBJECT_NAME":"ONEWEB-0701","OBJECT_ID":"2024-188P","EPOCH":"2025-11-23T08:58:30.372960","MEAN_MOTION":13.10373033,"ECCENTRICITY":0.0002118,"INCLINATION":87.8811,"RA_OF_ASC_NODE":77.2875,"ARG_OF_PERICENTER":81.6561,"MEAN_ANOMALY":278.4807,"EPHEMERIS_TYPE":0,"CLASSIFICATION_TYPE":"U","NORAD_CAT_ID":61607,"ELEMENT_SET_NO":999,"REV_AT_EPOCH":5635,"BSTAR":0.0020307,"MEAN_MOTION_DOT":7.22e-6,"MEAN_MOTION_DDOT":0},{"OBJECT_NAME":"ONEWEB-0702","OBJECT_ID":"2024-188Q","EPOCH":"2025-11-23T07:45:44.466912","MEAN_MOTION":13.11415263,"ECCENTRICITY":0.0001875,"INCLINATION":87.8817,"RA_OF_ASC_NODE":61.9763,"ARG_OF_PERICENTER":75.4595,"MEAN_ANOMALY":284.6741,"EPHEMERIS_TYPE":0,"CLASSIFICATION_TYPE":"U","NORAD_CAT_ID":61608,"ELEMENT_SET_NO":999,"REV_AT_EPOCH":5750,"BSTAR":0.0010401,"MEAN_MOTION_DOT":3.81e-6,"MEAN_MOTION_DDOT":0}]
